#RA= 56.8517, DEC= 7.6030
#Sector  5 (2018-Nov-15 to 2018-Dec-11, in cycle 1): observed in camera 1.
#
#*******************************************************************************
#Ephemeris / WWW_USER Wed Dec  9 11:06:02 2020 Pasadena, USA      / Horizons    
#*******************************************************************************
#Target body name: 90377 Sedna (2003 VB12)         {source: JPL#31}
#Center body name: Earth (399)                     {source: DE431}
#Center-site name: Greenwich
#*******************************************************************************
#Start time      : A.D. 2018-Nov-14 00:00:00.0000 UT      
#Stop  time      : A.D. 2018-Dec-14 00:00:00.0000 UT      
#Step-size       : 60 minutes
#*******************************************************************************
#Target pole/equ : No model available
#Target radii    : (unavailable)                                                
#Center geodetic : 0.00000000,51.4773207,0.0670693 {E-lon(deg),Lat(deg),Alt(km)}
#Center cylindric: 0.00000000,3980.66470,4966.8438 {E-lon(deg),Dxy(km),Dz(km)}
#Center pole/equ : High-precision EOP model        {East-longitude positive}
#Center radii    : 6378.1 x 6378.1 x 6356.8 km     {Equator, meridian, pole}    
#Target primary  : Sun
#Vis. interferer : MOON (R_eq= 1737.400) km        {source: DE431}
#Rel. light bend : Sun, EARTH                      {source: DE431}
#Rel. lght bnd GM: 1.3271E+11, 3.9860E+05 km^3/s^2                              
#Small-body perts: Yes                             {source: SB431-N16}
#Atmos refraction: NO (AIRLESS)
#RA format       : DEG
#Time format     : JD  
#EOP file        : eop.201208.p210301                                           
#EOP coverage    : DATA-BASED 1962-JAN-20 TO 2020-DEC-08. PREDICTS-> 2021-FEB-28
#Units conversion: 1 au= 149597870.700 km, c= 299792.458 km/s, 1 day= 86400.0 s 
#Table cut-offs 1: Elevation (-90.0deg=NO ),Airmass (>38.000=NO), Daylight (NO )
#Table cut-offs 2: Solar elongation (  0.0,180.0=NO ),Local Hour Angle( 0.0=NO )
#Table cut-offs 3: RA/DEC angular rate (     0.0=NO )                           
#*******************************************************************************
#Initial IAU76/J2000 heliocentric ecliptic osculating elements (au, days, deg.):
#  EPOCH=  2457250.5 ! 2015-Aug-16.00 (TDB)         Residual RMS= .098239       
#   EC= .8520679361328074   QR= 76.05698791331483   TP= 2479453.9818000919      
#   OM= 144.5486391335263   W=  311.3995101771422   IN= 11.92867818433043       
#  Equivalent ICRF heliocentric equatorial cartesian coordinates (au, au/d):
#   X= 4.864057043512999E+01  Y= 6.993820804836996E+01  Z= 1.097160056350969E+01
#  VX=-2.399980201939103E-03 VY= 5.981763579087654E-04 VZ= 4.438081424412539E-04
#Asteroid physical parameters (km, seconds, rotational period in hours):        
#   GM= n.a.                RAD= n.a.               ROTPER= 10.273              
#   H= 1.3                  G= .150                 B-V= n.a.                   
#                           ALBEDO= n.a.            STYP= n.a.                  
#**************************************************************************************
#Date_________JDUT     R.A._______(ICRF)_______DEC   APmag   S-brt    S-O-T /r    S-T-O
#**************************************************************************************
#$$SOE
2458446.000000000 *    57.041198930   7.633405534  20.613    n.a. 167.1965 /T   0.1456
2458446.041666667 *    57.040783359   7.633320918  20.613    n.a. 167.1823 /T   0.1458
2458446.083333333 *    57.040367366   7.633236535  20.613    n.a. 167.1681 /T   0.1459
2458446.125000000 *    57.039950660   7.633152366  20.613    n.a. 167.1537 /T   0.1461
2458446.166666667 *    57.039533001   7.633068380  20.613    n.a. 167.1393 /T   0.1462
2458446.208333333 Nm   57.039114212   7.632984541  20.613    n.a. 167.1247 /T   0.1464
2458446.250000000 Am   57.038694197   7.632900806  20.613    n.a. 167.1100 /T   0.1465
2458446.291666667  m   57.038272945   7.632817132  20.613    n.a. 167.0952 /T   0.1467
2458446.333333333  m   57.037850528   7.632733478  20.613    n.a. 167.0802 /T   0.1468
2458446.375000000  m   57.037427102   7.632649804  20.613    n.a. 167.0651 /T   0.1470
2458446.416666667  m   57.037002889   7.632566079  20.613    n.a. 167.0498 /T   0.1471
2458446.458333333  m   57.036578170   7.632482281  20.613    n.a. 167.0344 /T   0.1473
2458446.500000000  m   57.036153259   7.632398397  20.613    n.a. 167.0187 /T   0.1474
2458446.541666667  m   57.035728483   7.632314427  20.613    n.a. 167.0030 /T   0.1476
2458446.583333333  m   57.035304165   7.632230381  20.613    n.a. 166.9870 /T   0.1477
2458446.625000000  m   57.034880592   7.632146280  20.613    n.a. 166.9710 /T   0.1479
2458446.666666667  m   57.034458006   7.632062154  20.613    n.a. 166.9548 /T   0.1481
2458446.708333333  m   57.034036579   7.631978041  20.613    n.a. 166.9385 /T   0.1482
2458446.750000000 Am   57.033616405   7.631893982  20.613    n.a. 166.9220 /T   0.1484
2458446.791666667 Cm   57.033197495   7.631810022  20.613    n.a. 166.9055 /T   0.1486
2458446.833333333 *m   57.032779772   7.631726202  20.613    n.a. 166.8889 /T   0.1487
2458446.875000000 *    57.032363080   7.631642561  20.613    n.a. 166.8722 /T   0.1489
2458446.916666667 *    57.031947193   7.631559130  20.613    n.a. 166.8555 /T   0.1491
2458446.958333333 *    57.031531832   7.631475931  20.614    n.a. 166.8387 /T   0.1493
2458447.000000000 *    57.031116682   7.631392976  20.614    n.a. 166.8218 /T   0.1494
2458447.041666667 *    57.030701414   7.631310267  20.614    n.a. 166.8048 /T   0.1496
2458447.083333333 *    57.030285709   7.631227791  20.614    n.a. 166.7878 /T   0.1498
2458447.125000000 *    57.029869279   7.631145528  20.614    n.a. 166.7706 /T   0.1500
2458447.166666667 *    57.029451887   7.631063448  20.614    n.a. 166.7534 /T   0.1501
2458447.208333333 N    57.029033364   7.630981512  20.614    n.a. 166.7360 /T   0.1503
2458447.250000000  m   57.028613617   7.630899680  20.614    n.a. 166.7186 /T   0.1505
2458447.291666667  m   57.028192641   7.630817907  20.614    n.a. 166.7009 /T   0.1507
2458447.333333333  m   57.027770514   7.630736151  20.614    n.a. 166.6832 /T   0.1509
2458447.375000000  m   57.027347395   7.630654375  20.614    n.a. 166.6653 /T   0.1510
2458447.416666667  m   57.026923514   7.630572548  20.614    n.a. 166.6472 /T   0.1512
2458447.458333333  m   57.026499152   7.630490647  20.614    n.a. 166.6290 /T   0.1514
2458447.500000000  m   57.026074625   7.630408662  20.614    n.a. 166.6106 /T   0.1516
2458447.541666667  m   57.025650262   7.630326592  20.614    n.a. 166.5921 /T   0.1518
2458447.583333333  m   57.025226382   7.630244448  20.614    n.a. 166.5734 /T   0.1520
2458447.625000000  m   57.024803272   7.630162253  20.614    n.a. 166.5546 /T   0.1522
2458447.666666667  m   57.024381167   7.630080036  20.614    n.a. 166.5357 /T   0.1524
2458447.708333333  m   57.023960236   7.629997836  20.614    n.a. 166.5167 /T   0.1526
2458447.750000000 Am   57.023540568   7.629915694  20.614    n.a. 166.4976 /T   0.1528
2458447.791666667 Cm   57.023122166   7.629833655  20.614    n.a. 166.4785 /T   0.1530
2458447.833333333 *m   57.022704950   7.629751761  20.614    n.a. 166.4592 /T   0.1532
2458447.875000000 *m   57.022288758   7.629670048  20.614    n.a. 166.4399 /T   0.1534
2458447.916666667 *    57.021873361   7.629588548  20.614    n.a. 166.4206 /T   0.1536
2458447.958333333 *    57.021458474   7.629507283  20.614    n.a. 166.4012 /T   0.1538
2458448.000000000 *    57.021043783   7.629426264  20.615    n.a. 166.3817 /T   0.1540
2458448.041666667 *    57.020628958   7.629345490  20.615    n.a. 166.3622 /T   0.1542
2458448.083333333 *    57.020213682   7.629264951  20.615    n.a. 166.3426 /T   0.1544
2458448.125000000 *    57.019797670   7.629184624  20.615    n.a. 166.3229 /T   0.1546
2458448.166666667 *    57.019380688   7.629104478  20.615    n.a. 166.3031 /T   0.1548
2458448.208333333 N    57.018962572   7.629024476  20.615    n.a. 166.2832 /T   0.1550
2458448.250000000      57.018543236   7.628944575  20.615    n.a. 166.2632 /T   0.1552
2458448.291666667  m   57.018122678   7.628864732  20.615    n.a. 166.2430 /T   0.1554
2458448.333333333  m   57.017700984   7.628784905  20.615    n.a. 166.2228 /T   0.1557
2458448.375000000  m   57.017278318   7.628705057  20.615    n.a. 166.2023 /T   0.1559
2458448.416666667  m   57.016854912   7.628625157  20.615    n.a. 166.1817 /T   0.1561
2458448.458333333  m   57.016431052   7.628545183  20.615    n.a. 166.1610 /T   0.1563
2458448.500000000  m   57.016007054   7.628465126  20.615    n.a. 166.1401 /T   0.1565
2458448.541666667  m   57.015583247   7.628384986  20.615    n.a. 166.1191 /T   0.1567
2458448.583333333  m   57.015159950   7.628304775  20.615    n.a. 166.0979 /T   0.1570
2458448.625000000  m   57.014737446   7.628224514  20.615    n.a. 166.0767 /T   0.1572
2458448.666666667  m   57.014315967   7.628144237  20.615    n.a. 166.0553 /T   0.1574
2458448.708333333  m   57.013895676   7.628063979  20.615    n.a. 166.0339 /T   0.1576
2458448.750000000 Am   57.013476656   7.627983785  20.615    n.a. 166.0124 /T   0.1579
2458448.791666667 Cm   57.013058907   7.627903697  20.615    n.a. 165.9908 /T   0.1581
2458448.833333333 *m   57.012642340   7.627823757  20.615    n.a. 165.9692 /T   0.1583
2458448.875000000 *m   57.012226791   7.627744003  20.615    n.a. 165.9475 /T   0.1586
2458448.916666667 *m   57.011812024   7.627664464  20.616    n.a. 165.9258 /T   0.1588
2458448.958333333 *    57.011397755   7.627585163  20.616    n.a. 165.9041 /T   0.1590
2458449.000000000 *    57.010983664   7.627506109  20.616    n.a. 165.8823 /T   0.1593
2458449.041666667 *    57.010569425   7.627427301  20.616    n.a. 165.8604 /T   0.1595
2458449.083333333 *    57.010154721   7.627348728  20.616    n.a. 165.8385 /T   0.1597
2458449.125000000 *    57.009739269   7.627270366  20.616    n.a. 165.8165 /T   0.1600
